stk.v.10.0

BEGIN Ephemeris

NumberOfEphemerisPoints 301
CoordinateSystem ICRF
ScenarioEpoch 2025-12-12T00:00:00.000
InterpolationOrder 1
CentralBody Earth

EphemerisTimePosVel

0.000000 924092.273627 -5522157.678186 3039978.461614
1.000000 924778.266498 -5523226.949078 3040612.552589
2.000000 925463.167036 -5524288.437133 3041242.402152
3.000000 926146.973166 -5525342.142671 3041868.010305
4.000000 926829.682817 -5526388.066011 3042489.377046
5.000000 927511.293915 -5527426.207473 3043106.502376
6.000000 928191.804390 -5528456.567376 3043719.386294
7.000000 928871.212167 -5529479.146041 3044328.028802
8.000000 929549.515176 -5530493.943789 3044932.429898
9.000000 930226.711343 -5531500.960941 3045532.589583
10.000000 930902.798597 -5532500.197819 3046128.507857
11.000000 931577.774865 -5533491.654744 3046720.184720
12.000000 932251.638076 -5534475.332039 3047307.620172
13.000000 932924.386157 -5535451.230027 3047890.814212
14.000000 933596.017036 -5536419.349030 3048469.766841
15.000000 934266.528642 -5537379.689373 3049044.478059
16.000000 934935.918903 -5538332.251378 3049614.947866
17.000000 935604.185747 -5539277.035370 3050181.176261
18.000000 936271.327102 -5540214.041674 3050743.163245
19.000000 936937.340896 -5541143.270614 3051300.908819
20.000000 937602.225059 -5542064.722515 3051854.412980
21.000000 938265.977518 -5542978.397704 3052403.675731
22.000000 938928.596202 -5543884.296506 3052948.697071
23.000000 939590.079040 -5544782.419248 3053489.476999
24.000000 940250.423960 -5545672.766256 3054026.015516
25.000000 940909.628891 -5546555.337858 3054558.312622
26.000000 941567.691762 -5547430.134380 3055086.368317
27.000000 942224.610502 -5548297.156151 3055610.182600
28.000000 942880.383039 -5549156.403499 3056129.755472
29.000000 943535.007302 -5550007.876753 3056645.086933
30.000000 944188.481222 -5550851.576241 3057156.176983
31.000000 944840.802725 -5551687.502293 3057663.025622
32.000000 945491.969742 -5552515.655239 3058165.632849
33.000000 946141.980203 -5553336.035408 3058663.998666
34.000000 946790.832035 -5554148.643132 3059158.123071
35.000000 947438.523169 -5554953.478740 3059648.006065
36.000000 948085.051533 -5555750.542564 3060133.647647
37.000000 948730.415058 -5556539.834935 3060615.047819
38.000000 949374.611673 -5557321.356186 3061092.206579
39.000000 950017.639307 -5558095.106649 3061565.123928
40.000000 950659.495890 -5558861.086656 3062033.799866
41.000000 951300.179351 -5559619.296540 3062498.234393
42.000000 951939.687621 -5560369.736635 3062958.427508
43.000000 952578.018629 -5561112.407275 3063414.379212
44.000000 953215.170305 -5561847.308793 3063866.089505
45.000000 953851.140579 -5562574.441524 3064313.558387
46.000000 954485.927381 -5563293.805804 3064756.785858
47.000000 955119.528641 -5564005.401966 3065195.771917
48.000000 955751.942289 -5564709.230347 3065630.516566
49.000000 956383.166255 -5565405.291283 3066061.019803
50.000000 957013.198469 -5566093.585111 3066487.281628
51.000000 957642.036863 -5566774.112165 3066909.302043
52.000000 958269.679365 -5567446.872785 3067327.081046
53.000000 958896.123907 -5568111.867307 3067740.618639
54.000000 959521.368419 -5568769.096070 3068149.914820
55.000000 960145.410831 -5569418.559410 3068554.969590
56.000000 960768.249075 -5570060.257668 3068955.782948
57.000000 961389.881080 -5570694.191181 3069352.354896
58.000000 962010.304777 -5571320.360289 3069744.685432
59.000000 962629.518098 -5571938.765332 3070132.774557
60.000000 963247.518973 -5572549.406650 3070516.622271
61.000000 963864.305333 -5573152.284583 3070896.228573
62.000000 964479.875109 -5573747.399471 3071271.593465
63.000000 965094.226232 -5574334.751657 3071642.716945
64.000000 965707.356633 -5574914.341482 3072009.599014
65.000000 966319.264243 -5575486.169287 3072372.239672
66.000000 966929.946993 -5576050.235414 3072730.638918
67.000000 967539.402815 -5576606.540207 3073084.796754
68.000000 968147.629641 -5577155.084008 3073434.713178
69.000000 968754.625400 -5577695.867161 3073780.388191
70.000000 969360.388026 -5578228.890008 3074121.821793
71.000000 969964.915449 -5578754.152896 3074459.013983
72.000000 970568.205600 -5579271.656167 3074791.964763
73.000000 971170.256413 -5579781.400167 3075120.674131
74.000000 971771.065818 -5580283.385241 3075445.142088
75.000000 972370.631747 -5580777.611734 3075765.368633
76.000000 972968.952132 -5581264.079993 3076081.353768
77.000000 973566.024904 -5581742.790363 3076393.097491
78.000000 974161.847997 -5582213.743192 3076700.599804
79.000000 974756.419341 -5582676.938825 3077003.860705
80.000000 975349.736869 -5583132.377612 3077302.880194
81.000000 975941.798513 -5583580.059900 3077597.658273
82.000000 976532.602206 -5584019.986036 3077888.194940
83.000000 977122.145879 -5584452.156369 3078174.490196
84.000000 977710.427465 -5584876.571248 3078456.544041
85.000000 978297.444896 -5585293.231023 3078734.356475
86.000000 978883.196105 -5585702.136042 3079007.927498
87.000000 979467.679024 -5586103.286657 3079277.257109
88.000000 980050.891586 -5586496.683217 3079542.345309
89.000000 980632.831723 -5586882.326073 3079803.192098
90.000000 981213.497369 -5587260.215576 3080059.797476
91.000000 981792.886455 -5587630.352077 3080312.161442
92.000000 982370.996916 -5587992.735929 3080560.283998
93.000000 982947.826683 -5588347.367484 3080804.165142
94.000000 983523.373690 -5588694.247094 3081043.804875
95.000000 984097.635869 -5589033.375112 3081279.203196
96.000000 984670.611154 -5589364.751891 3081510.360107
97.000000 985242.297479 -5589688.377786 3081737.275606
98.000000 985812.692775 -5590004.253149 3081959.949694
99.000000 986381.794977 -5590312.378336 3082178.382371
100.000000 986949.602018 -5590612.753702 3082392.573637
101.000000 987516.111831 -5590905.379601 3082602.523492
102.000000 988081.322350 -5591190.256389 3082808.231935
103.000000 988645.231508 -5591467.384422 3083009.698967
104.000000 989207.837239 -5591736.764056 3083206.924588
105.000000 989769.137476 -5591998.395648 3083399.908798
106.000000 990329.130154 -5592252.279554 3083588.651596
107.000000 990887.813206 -5592498.416133 3083773.152983
108.000000 991445.184566 -5592736.805742 3083953.412959
109.000000 992001.242168 -5592967.448738 3084129.431524
110.000000 992555.983945 -5593190.345481 3084301.208678
111.000000 993109.407832 -5593405.496329 3084468.744421
112.000000 993661.511764 -5593612.901642 3084632.038752
113.000000 994212.293674 -5593812.561779 3084791.091672
114.000000 994761.751496 -5594004.477099 3084945.903181
115.000000 995309.883165 -5594188.647964 3085096.473279
116.000000 995856.686615 -5594365.074734 3085242.801965
117.000000 996402.159781 -5594533.757770 3085384.889240
118.000000 996946.300596 -5594694.697434 3085522.735104
119.000000 997489.106997 -5594847.894086 3085656.339557
120.000000 998030.576917 -5594993.348090 3085785.702599
121.000000 998570.708291 -5595131.059808 3085910.824229
122.000000 999109.499053 -5595261.029603 3086031.704449
123.000000 999646.947140 -5595383.257838 3086148.343257
124.000000 1000183.050485 -5595497.744876 3086260.740654
125.000000 1000717.807023 -5595604.491082 3086368.896639
126.000000 1001251.214690 -5595703.496820 3086472.811214
127.000000 1001783.271420 -5595794.762455 3086572.484377
128.000000 1002313.975150 -5595878.288351 3086667.916129
129.000000 1002843.323813 -5595954.074875 3086759.106470
130.000000 1003371.315345 -5596022.122392 3086846.055399
131.000000 1003897.947683 -5596082.431268 3086928.762918
132.000000 1004423.218760 -5596135.001871 3087007.229025
133.000000 1004947.126513 -5596179.834566 3087081.453721
134.000000 1005469.668877 -5596216.929721 3087151.437006
135.000000 1005990.843788 -5596246.287704 3087217.178880
136.000000 1006510.649181 -5596267.908884 3087278.679342
137.000000 1007029.082992 -5596281.793627 3087335.938393
138.000000 1007546.143158 -5596287.942304 3087388.956033
139.000000 1008061.827613 -5596286.355282 3087437.732262
140.000000 1008576.134294 -5596277.032933 3087482.267080
141.000000 1009089.061137 -5596259.975625 3087522.560486
142.000000 1009600.606077 -5596235.183729 3087558.612481
143.000000 1010110.767052 -5596202.657616 3087590.423065
144.000000 1010619.541997 -5596162.397656 3087617.992238
145.000000 1011126.928849 -5596114.404221 3087641.320000
146.000000 1011632.925544 -5596058.677683 3087660.406350
147.000000 1012137.530018 -5595995.218413 3087675.251290
148.000000 1012640.740207 -5595924.026785 3087685.854818
149.000000 1013142.554049 -5595845.103170 3087692.216934
150.000000 1013642.969480 -5595758.447943 3087694.337640
151.000000 1014141.984437 -5595664.061477 3087692.216934
152.000000 1014639.596856 -5595561.944145 3087685.854818
153.000000 1015135.804674 -5595452.096323 3087675.251290
154.000000 1015630.605829 -5595334.518384 3087660.406350
155.000000 1016123.998256 -5595209.210704 3087641.320000
156.000000 1016615.979893 -5595076.173658 3087617.992238
157.000000 1017106.548678 -5594935.407622 3087590.423065
158.000000 1017595.702546 -5594786.912972 3087558.612481
159.000000 1018083.439436 -5594630.690084 3087522.560486
160.000000 1018569.757285 -5594466.739336 3087482.267080
161.000000 1019054.654030 -5594295.061105 3087437.732262
162.000000 1019538.127609 -5594115.655769 3087388.956033
163.000000 1020020.175958 -5593928.523704 3087335.938393
164.000000 1020500.797016 -5593733.665290 3087278.679342
165.000000 1020979.988721 -5593531.080906 3087217.178880
166.000000 1021457.749009 -5593320.770930 3087151.437006
167.000000 1021934.075818 -5593102.735742 3087081.453721
168.000000 1022408.967087 -5592876.975722 3087007.229025
169.000000 1022882.420754 -5592643.491250 3086928.762918
170.000000 1023354.434756 -5592402.282707 3086846.055399
171.000000 1023825.007030 -5592153.350473 3086759.106470
172.000000 1024294.135517 -5591896.694930 3086667.916129
173.000000 1024761.818153 -5591632.316459 3086572.484377
174.000000 1025228.052876 -5591360.215443 3086472.811214
175.000000 1025692.837626 -5591080.392263 3086368.896639
END Ephemeris
